STARLINK-36820          
1 67966U 26038F   26070.16667824 -.01648771  00000+0 -88360-2 0  9990
2 67966  97.2736  80.5415 0001461  87.7810 111.5359 15.83195382  3436
STARLINK-36819          
1 67967U 26038G   26070.16667824 -.01656606  00000+0 -88206-2 0  9996
2 67967  97.2732  80.5432 0001389  92.0369 112.5503 15.83348053  3436
STARLINK-36812          
1 67968U 26038H   26070.16667824 -.01653921  00000+0 -87518-2 0  9999
2 67968  97.2724  80.5443 0001415  90.0209 119.0303 15.83473213  3438
STARLINK-36709          
1 67969U 26038J   26070.16667824 -.01644264  00000+0 -85675-2 0  9992
2 67969  97.2722  80.5492 0001424  87.8232 132.0241 15.83778380  3430
STARLINK-36319          
1 67970U 26038K   26070.16667824 -.01644830  00000+0 -86347-2 0  9990
2 67970  97.2721  80.5465 0001474  89.1928 125.2124 15.83622318  3403
STARLINK-36710          
1 67971U 26038L   26070.16667824 -.01638540  00000+0 -84566-2 0  9993
2 67971  97.2715  80.5518 0001449  86.6042 139.8942 15.83966997  3433
STARLINK-36894          
1 67972U 26038M   26070.16667824 -.01634989  00000+0 -83736-2 0  9995
2 67972  97.2708  80.5538 0001385  88.2901 143.6569 15.84122042  3433
STARLINK-36900          
1 67973U 26038N   26070.16667824 -.01634741  00000+0 -82462-2 0  9997
2 67973  97.2704  80.5583 0001359  90.9594 151.9161 15.84438461  3434
STARLINK-36901          
1 67974U 26038P   26070.16667824 -.01633578  00000+0 -83054-2 0  9993
2 67974  97.2705  80.5557 0001428  84.7884 152.3300 15.84271464  3435
STARLINK-36883          
1 67975U 26038Q   26070.16667824 -.01620043  00000+0 -79139-2 0  9996
2 67975  97.2689  80.5673 0001343  91.2887 173.8115 15.85077559  3430
STARLINK-36880          
1 67976U 26038R   26070.16667824 -.01632721  00000+0 -81709-2 0  9999
2 67976  97.2700  80.5603 0001461  87.9589 160.5111 15.84598597  3438
STARLINK-36904          
1 67977U 26038S   26070.16667824 -.01623006  00000+0 -79927-2 0  9995
2 67977  97.2689  80.5644 0001376  87.5436 171.9823 15.84915253  3430
STARLINK-36364          
1 67978U 26038T   26070.16667824 -.01613115  00000+0 -77313-2 0  9993
2 67978  97.2677  80.5723 0001242  89.9209 188.3415 15.85459579  3436
STARLINK-36359          
1 67979U 26038U   26070.16667824 -.01626350  00000+0 -80840-2 0  9998
2 67979  97.2694  80.5616 0001330  87.5203 165.5980 15.84729296  3432
STARLINK-36882          
1 67980U 26038V   26070.16667824 -.01615733  00000+0 -78141-2 0  9994
2 67980  97.2682  80.5695 0001260  94.1603 177.8592 15.85277824  3439
STARLINK-36874          
1 67981U 26038W   26070.16667824 -.01612112  00000+0 -76767-2 0  9995
2 67981  97.2676  80.5742 0001281  87.5025 195.2904 15.85590358  3434
STARLINK-36879          
1 67982U 26038X   26070.16667824 -.01609902  00000+0 -76048-2 0  9991
2 67982  97.2671  80.5763 0001256  88.3809 199.9974 15.85751893  3435
STARLINK-36867          
1 67983U 26038Y   26070.16667824 -.01606335  00000+0 -74635-2 0  9999
2 67983  97.2665  80.5814 0001209  87.1439 212.6002 15.86085134  3434
STARLINK-36266          
1 67984U 26038Z   26070.16667824 -.01606778  00000+0 -75210-2 0  9991
2 67984  97.2670  80.5793 0001253  90.2153 204.4237 15.85933665  3400
STARLINK-36802          
1 67985U 26038AA  26070.16667824 -.01615776  00000+0 -74628-2 0  9992
2 67985  97.2662  80.5831 0001219  96.0758 208.3305 15.86223915  3435
STARLINK-36535          
1 67986U 26039A   26070.16667824 -.00015012  00000+0 -68932-4 0  9993
2 67986  42.9991  45.8890 0000958 283.5238 263.8034 15.82003630  3118
STARLINK-36744          
1 67987U 26039B   26070.16667824 -.00114108  00000+0 -54523-3 0  9990
2 67987  42.9991  45.8778 0001348 269.6050 281.9804 15.82067021  3115
STARLINK-36734          
1 67988U 26039C   26070.16667824 -.01927026  00000+0 -11746-1 0  9991
2 67988  42.9991  45.8726 0000955 260.5961 292.8068 15.79633328  3111
STARLINK-36957          
1 67989U 26039D   26070.16667824 -.00066963  00000+0 -31754-3 0  9998
2 67989  42.9990  45.8554 0001412 283.0864 277.0589 15.82042539  3116
STARLINK-36951          
1 67990U 26039E   26069.91670139  .00121782  00000+0  57371-3 0  9996
2 67990  42.9994  47.3742 0001764 252.6240 326.3567 15.81980778  3072
STARLINK-36941          
1 67991U 26039F   26070.16667824 -.01921038  00000+0 -11895-1 0  9997
2 67991  42.9991  45.8408 0001113 255.5065 309.9518 15.79280167  3117
STARLINK-36950          
1 67992U 26039G   26070.16667824 -.00054422  00000+0 -25749-3 0  9996
2 67992  42.9993  45.8222 0001268 273.6291 299.3312 15.82020939  3114
STARLINK-36975          
1 67993U 26039H   26070.16667824 -.00043377  00000+0 -20427-3 0  9992
2 67993  42.9994  45.8116 0001858 262.2314 314.9872 15.82038102  3119
STARLINK-36993          
1 67994U 26039J   26070.16667824 -.00080683  00000+0 -38366-3 0  9995
2 67994  43.0004  45.8015 0001619 259.8769 321.6177 15.82045699  3115
STARLINK-36968          
1 67995U 26039K   26070.16667824 -.01685214  00000+0 -90472-2 0  9993
2 67995  42.9994  45.7795 0001648 258.5610 331.4341 15.82424719  3115
STARLINK-36979          
1 67996U 26039L   26070.16667824 -.00037267  00000+0 -17517-3 0  9992
2 67996  43.0004  45.7904 0001796 267.7291 318.0504 15.82019765  3116
STARLINK-36994          
1 67997U 26039M   26070.16667824  .00045726  00000+0  21874-3 0  9991
2 67997  42.9993  45.7580 0001975 283.3222 315.2574 15.81995174  3111
STARLINK-36988          
1 67998U 26039N   26070.16667824 -.00041511  00000+0 -19551-3 0  9991
2 67998  43.0003  45.7686 0001734 278.7782 315.5310 15.82019837  3110
STARLINK-36926          
1 67999U 26039P   26070.16667824 -.00037750  00000+0 -17743-3 0  9993
2 67999  42.9991  45.7475 0001575 263.2574 339.6031 15.82027178  3116
STARLINK-36931          
1 68000U 26039Q   26070.16667824  .00009829  00000+0  49169-4 0  9999
2 68000  42.9993  45.7371 0001720 278.5979 328.5272 15.82009945  3113
STARLINK-36903          
1 68001U 26039R   26070.16667824  .00011551  00000+0  57327-4 0  9990
2 68001  42.9994  45.7257 0001800 275.6281 335.7710 15.82010649  3111
STARLINK-36898          
1 68002U 26039S   26070.16667824  .00019005  00000+0  92666-4 0  9998
2 68002  42.9993  45.7038 0001840 275.2312 344.7172 15.81997873  3117
STARLINK-36862          
1 68003U 26039T   26070.16667824 -.00043757  00000+0 -20599-3 0  9997
2 68003  42.9993  45.6825 0001579 284.7240 343.7318 15.82050357  3114
STARLINK-36888          
1 68004U 26039U   26070.16667824  .00001839  00000+0  11266-4 0  9993
2 68004  42.9992  45.7152 0001507 279.5472 336.1256 15.82011729  3115
STARLINK-36910          
1 68005U 26039V   26070.16667824 -.00011401  00000+0 -51709-4 0  9998
2 68005  42.9992  45.6933 0001613 268.8338 355.3857 15.82005195  3112
STARLINK-36889          
1 68006U 26039W   26070.08336806 -.00034028  00000+0 -15968-3 0  9999
2 68006  42.9993  46.1803 0001294 260.8587 256.8536 15.82019173  3108
STARLINK-36592          
1 68007U 26039X   26070.08336806 -.00055817  00000+0 -26402-3 0  9994
2 68007  42.9994  46.1707 0001765 270.8095 251.1670 15.82033843  3108
STARLINK-36911          
1 68008U 26039Y   26070.08336806 -.00012221  00000+0 -55614-4 0  9995
2 68008  42.9994  46.1603 0001760 262.3088 263.9549 15.82004601  3103
STARLINK-36956          
1 68009U 26039Z   26070.08336806 -.00022185  00000+0 -10316-3 0  9995
2 68009  42.9993  46.1486 0001831 274.9318 255.6104 15.82001041  3106
STARLINK-36953          
1 68010U 26039AA  26070.08336806  .00033842  00000+0  16281-3 0  9994
2 68010  42.9991  46.1265 0001411 251.4411 287.6457 15.81990513  3105
STARLINK-36991          
1 68011U 26039AB  26070.08336806 -.01581688  00000+0 -84111-2 0  9990
2 68011  42.9990  46.1164 0001309 257.1768 286.1216 15.82426196  3106
STARLINK-36936          
1 68012U 26039AC  26070.08336806 -.00096227  00000+0 -45887-3 0  9998
2 68012  42.9990  46.0941 0001280 263.6797 288.1879 15.82047494  3108
STARLINK-36967          
1 68013U 26039AD  26070.08336806  .00002120  00000+0  12612-4 0  9997
2 68013  42.9992  46.1371 0001961 261.8164 272.9998 15.81996572  3105
STARLINK-36985          
1 68014U 26039AE  26070.08336806  .00037541  00000+0  18044-3 0  9997
2 68014  42.9991  46.1054 0002177 270.9455 276.6783 15.81966830  3104
STARLINK-36335          
1 68015U 26040A   26070.08336806 -.01145362  43272-3 -19860-2 0  9992
2 68015  97.2762  18.3843 0001083  98.3141 141.1182 16.02330836  2596
STARLINK-36923          
1 68016U 26040B   26070.08336806 -.01137121  42799-3 -19484-2 0  9992
2 68016  97.2764  18.3873 0000942  93.7904 151.7725 16.02533890  2642
STARLINK-36568          
1 68017U 26040C   26070.08336806 -.01130551  42390-3 -19262-2 0  9994
2 68017  97.2761  18.3885 0000972  95.6633 152.7290 16.02630429  2640
STARLINK-36930          
1 68018U 26040D   26070.08336806 -.01125188  41918-3 -19402-2 0  9996
2 68018  97.2760  18.3860 0000924  99.2752 143.2125 16.02423757  2648
STARLINK-36921          
1 68019U 26040E   26069.91670139 -.01162719  44950-3 -19152-2 0  9999
2 68019  97.2765  18.2100 0000963  98.5050 273.8975 16.03210281  2624
STARLINK-36928          
1 68020U 26040F   26070.08336806 -.01135392  42770-3 -19244-2 0  9998
2 68020  97.2760  18.3889 0001130 108.9853 141.6390 16.02719705  2649
STARLINK-36858          
1 68021U 26040G   26070.08336806  .00927203  46265-3  12950-2 0  9996
2 68021  97.2755  18.3932 0000560 167.2398  93.3110 16.06006720  2644
STARLINK-36916          
1 68022U 26040H   26070.08336806 -.01127122  42345-3 -18767-2 0  9999
2 68022  97.2760  18.3930 0000944  95.4230 163.9419 16.03021925  2649
STARLINK-36871          
1 68023U 26040J   26070.08336806 -.01130618  42642-3 -18706-2 0  9997
2 68023  97.2756  18.3938 0000938  92.2756 170.0222 16.03130237  2642
STARLINK-36891          
1 68024U 26040K   26070.08336806 -.01129470  42624-3 -18550-2 0  9999
2 68024  97.2754  18.3956 0000980 105.1996 160.7247 16.03255097  2643
